[{"OBJECT_NAME":"METOP-B","OBJECT_ID":"2012-049A","EPOCH":"2026-04-26T19:17:27.767040","MEAN_MOTION":14.21433238,"ECCENTRICITY":0.000341,"INCLINATION":98.6548,"RA_OF_ASC_NODE":169.3173,"ARG_OF_PERICENTER":123.3573,"MEAN_ANOMALY":236.7931,"EPHEMERIS_TYPE":0,"CLASSIFICATION_TYPE":"U","NORAD_CAT_ID":38771,"ELEMENT_SET_NO":999,"REV_AT_EPOCH":70596,"BSTAR":6.976e-5,"MEAN_MOTION_DOT":1.09e-6,"MEAN_MOTION_DDOT":0},{"OBJECT_NAME":"SARAL","OBJECT_ID":"2013-009A","EPOCH":"2026-04-26T20:30:54.137664","MEAN_MOTION":14.32843003,"ECCENTRICITY":0.0002991,"INCLINATION":98.5566,"RA_OF_ASC_NODE":304.0703,"ARG_OF_PERICENTER":82.2397,"MEAN_ANOMALY":277.9127,"EPHEMERIS_TYPE":0,"CLASSIFICATION_TYPE":"U","NORAD_CAT_ID":39086,"ELEMENT_SET_NO":999,"REV_AT_EPOCH":68825,"BSTAR":6.093e-5,"MEAN_MOTION_DOT":1.23e-6,"MEAN_MOTION_DDOT":0},{"OBJECT_NAME":"METOP-C","OBJECT_ID":"2018-087A","EPOCH":"2026-04-26T19:49:07.873248","MEAN_MOTION":14.21511826,"ECCENTRICITY":8.11e-5,"INCLINATION":98.6679,"RA_OF_ASC_NODE":177.3592,"ARG_OF_PERICENTER":40.0212,"MEAN_ANOMALY":320.1025,"EPHEMERIS_TYPE":0,"CLASSIFICATION_TYPE":"U","NORAD_CAT_ID":43689,"ELEMENT_SET_NO":999,"REV_AT_EPOCH":38753,"BSTAR":6.3948e-5,"MEAN_MOTION_DOT":9.7e-7,"MEAN_MOTION_DDOT":0},{"OBJECT_NAME":"OTB-3-GAZELLE","OBJECT_ID":"2022-127A","EPOCH":"2026-04-26T17:39:51.439392","MEAN_MOTION":14.42655288,"ECCENTRICITY":0.0012885,"INCLINATION":98.3936,"RA_OF_ASC_NODE":109.2283,"ARG_OF_PERICENTER":349.6185,"MEAN_ANOMALY":10.4736,"EPHEMERIS_TYPE":0,"CLASSIFICATION_TYPE":"U","NORAD_CAT_ID":54023,"ELEMENT_SET_NO":999,"REV_AT_EPOCH":18694,"BSTAR":6.562e-5,"MEAN_MOTION_DOT":1.75e-6,"MEAN_MOTION_DDOT":0},{"OBJECT_NAME":"EOS-6 (OCEANSAT-3)","OBJECT_ID":"2022-158A","EPOCH":"2026-04-26T20:30:16.856928","MEAN_MOTION":14.46979951,"ECCENTRICITY":0.0002311,"INCLINATION":98.3498,"RA_OF_ASC_NODE":215.7383,"ARG_OF_PERICENTER":106.6164,"MEAN_ANOMALY":253.5282,"EPHEMERIS_TYPE":0,"CLASSIFICATION_TYPE":"U","NORAD_CAT_ID":54361,"ELEMENT_SET_NO":999,"REV_AT_EPOCH":18041,"BSTAR":9.8958e-5,"MEAN_MOTION_DOT":3.16e-6,"MEAN_MOTION_DDOT":0},{"OBJECT_NAME":"KINEIS-1B","OBJECT_ID":"2024-114A","EPOCH":"2026-04-26T19:47:32.300160","MEAN_MOTION":14.80533252,"ECCENTRICITY":9.33e-5,"INCLINATION":97.9861,"RA_OF_ASC_NODE":141.2525,"ARG_OF_PERICENTER":245.0939,"MEAN_ANOMALY":115.0176,"EPHEMERIS_TYPE":0,"CLASSIFICATION_TYPE":"U","NORAD_CAT_ID":60079,"ELEMENT_SET_NO":999,"REV_AT_EPOCH":9980,"BSTAR":0.00015383,"MEAN_MOTION_DOT":1.126e-5,"MEAN_MOTION_DDOT":0},{"OBJECT_NAME":"KINEIS-1C","OBJECT_ID":"2024-114C","EPOCH":"2026-04-26T20:36:11.364768","MEAN_MOTION":14.8053533,"ECCENTRICITY":0.0001708,"INCLINATION":97.9885,"RA_OF_ASC_NODE":141.1225,"ARG_OF_PERICENTER":59.1873,"MEAN_ANOMALY":300.9507,"EPHEMERIS_TYPE":0,"CLASSIFICATION_TYPE":"U","NORAD_CAT_ID":60081,"ELEMENT_SET_NO":999,"REV_AT_EPOCH":9978,"BSTAR":0.00013866,"MEAN_MOTION_DOT":1.009e-5,"MEAN_MOTION_DDOT":0},{"OBJECT_NAME":"KINEIS-1D","OBJECT_ID":"2024-114D","EPOCH":"2026-04-26T19:13:14.813760","MEAN_MOTION":14.76189015,"ECCENTRICITY":0.000203,"INCLINATION":97.9914,"RA_OF_ASC_NODE":137.4935,"ARG_OF_PERICENTER":49.9846,"MEAN_ANOMALY":310.1542,"EPHEMERIS_TYPE":0,"CLASSIFICATION_TYPE":"U","NORAD_CAT_ID":60082,"ELEMENT_SET_NO":999,"REV_AT_EPOCH":9954,"BSTAR":0.00010308,"MEAN_MOTION_DOT":6.62e-6,"MEAN_MOTION_DDOT":0},{"OBJECT_NAME":"KINEIS-1E","OBJECT_ID":"2024-114E","EPOCH":"2026-04-26T20:59:13.325856","MEAN_MOTION":14.80448611,"ECCENTRICITY":0.0002232,"INCLINATION":97.9283,"RA_OF_ASC_NODE":141.0446,"ARG_OF_PERICENTER":57.3486,"MEAN_ANOMALY":302.7942,"EPHEMERIS_TYPE":0,"CLASSIFICATION_TYPE":"U","NORAD_CAT_ID":60083,"ELEMENT_SET_NO":999,"REV_AT_EPOCH":9979,"BSTAR":-0.00025293,"MEAN_MOTION_DOT":-1.985e-5,"MEAN_MOTION_DDOT":0},{"OBJECT_NAME":"KINEIS-1A","OBJECT_ID":"2024-114F","EPOCH":"2026-04-26T18:34:34.814784","MEAN_MOTION":14.80483991,"ECCENTRICITY":0.0002631,"INCLINATION":97.9254,"RA_OF_ASC_NODE":141.062,"ARG_OF_PERICENTER":313.3206,"MEAN_ANOMALY":46.7787,"EPHEMERIS_TYPE":0,"CLASSIFICATION_TYPE":"U","NORAD_CAT_ID":60084,"ELEMENT_SET_NO":999,"REV_AT_EPOCH":9978,"BSTAR":0.000169,"MEAN_MOTION_DOT":1.241e-5,"MEAN_MOTION_DDOT":0},{"OBJECT_NAME":"KINEIS-3C","OBJECT_ID":"2024-172A","EPOCH":"2026-04-26T18:17:05.195616","MEAN_MOTION":14.72285758,"ECCENTRICITY":7.53e-5,"INCLINATION":98.0411,"RA_OF_ASC_NODE":207.2082,"ARG_OF_PERICENTER":28.506,"MEAN_ANOMALY":331.6188,"EPHEMERIS_TYPE":0,"CLASSIFICATION_TYPE":"U","NORAD_CAT_ID":61220,"ELEMENT_SET_NO":999,"REV_AT_EPOCH":8550,"BSTAR":0.00035269,"MEAN_MOTION_DOT":2.179e-5,"MEAN_MOTION_DDOT":0},{"OBJECT_NAME":"KINEIS-3D","OBJECT_ID":"2024-172B","EPOCH":"2026-04-26T19:45:10.033056","MEAN_MOTION":14.72286784,"ECCENTRICITY":6.72e-5,"INCLINATION":98.0409,"RA_OF_ASC_NODE":207.2799,"ARG_OF_PERICENTER":40.8788,"MEAN_ANOMALY":319.247,"EPHEMERIS_TYPE":0,"CLASSIFICATION_TYPE":"U","NORAD_CAT_ID":61221,"ELEMENT_SET_NO":999,"REV_AT_EPOCH":8579,"BSTAR":0.0003214,"MEAN_MOTION_DOT":1.981e-5,"MEAN_MOTION_DDOT":0},{"OBJECT_NAME":"KINEIS-3E","OBJECT_ID":"2024-172C","EPOCH":"2026-04-26T19:20:07.747872","MEAN_MOTION":14.7227405,"ECCENTRICITY":9.09e-5,"INCLINATION":98.0402,"RA_OF_ASC_NODE":207.2503,"ARG_OF_PERICENTER":91.7891,"MEAN_ANOMALY":268.3421,"EPHEMERIS_TYPE":0,"CLASSIFICATION_TYPE":"U","NORAD_CAT_ID":61222,"ELEMENT_SET_NO":999,"REV_AT_EPOCH":8579,"BSTAR":0.00031677,"MEAN_MOTION_DOT":1.951e-5,"MEAN_MOTION_DDOT":0},{"OBJECT_NAME":"KINEIS-3A","OBJECT_ID":"2024-172D","EPOCH":"2026-04-26T18:56:39.179040","MEAN_MOTION":14.72302947,"ECCENTRICITY":9.35e-5,"INCLINATION":98.0401,"RA_OF_ASC_NODE":207.3349,"ARG_OF_PERICENTER":215.4265,"MEAN_ANOMALY":144.688,"EPHEMERIS_TYPE":0,"CLASSIFICATION_TYPE":"U","NORAD_CAT_ID":61223,"ELEMENT_SET_NO":999,"REV_AT_EPOCH":8521,"BSTAR":0.00034694,"MEAN_MOTION_DOT":2.143e-5,"MEAN_MOTION_DDOT":0},{"OBJECT_NAME":"KINEIS-3B","OBJECT_ID":"2024-172E","EPOCH":"2026-04-26T18:32:09.598848","MEAN_MOTION":14.72307313,"ECCENTRICITY":0.0001428,"INCLINATION":98.0396,"RA_OF_ASC_NODE":207.3444,"ARG_OF_PERICENTER":185.9495,"MEAN_ANOMALY":174.1695,"EPHEMERIS_TYPE":0,"CLASSIFICATION_TYPE":"U","NORAD_CAT_ID":61224,"ELEMENT_SET_NO":999,"REV_AT_EPOCH":8578,"BSTAR":0.00034687,"MEAN_MOTION_DOT":2.143e-5,"MEAN_MOTION_DDOT":0},{"OBJECT_NAME":"KINEIS-5C","OBJECT_ID":"2024-219A","EPOCH":"2026-04-26T01:37:56.898624","MEAN_MOTION":14.72300008,"ECCENTRICITY":0.00054358,"INCLINATION":97.9006,"RA_OF_ASC_NODE":276.3834,"ARG_OF_PERICENTER":90.5104,"MEAN_ANOMALY":269.6727,"EPHEMERIS_TYPE":0,"CLASSIFICATION_TYPE":"U","NORAD_CAT_ID":62081,"ELEMENT_SET_NO":999,"REV_AT_EPOCH":7608,"BSTAR":-9.841079e-6,"MEAN_MOTION_DOT":-1.1e-6,"MEAN_MOTION_DDOT":0},{"OBJECT_NAME":"KINEIS-5D","OBJECT_ID":"2024-219B","EPOCH":"2026-04-26T20:23:29.234688","MEAN_MOTION":14.72351119,"ECCENTRICITY":0.0006386,"INCLINATION":97.9099,"RA_OF_ASC_NODE":277.0856,"ARG_OF_PERICENTER":82.5676,"MEAN_ANOMALY":277.6257,"EPHEMERIS_TYPE":0,"CLASSIFICATION_TYPE":"U","NORAD_CAT_ID":62082,"ELEMENT_SET_NO":999,"REV_AT_EPOCH":7620,"BSTAR":0.00018253,"MEAN_MOTION_DOT":1.107e-5,"MEAN_MOTION_DDOT":0}]
