METOP-B                 
1 38771U 12049A   26116.80379360  .00000109  00000+0  69760-4 0  9995
2 38771  98.6548 169.3173 0003410 123.3573 236.7931 14.21433238705969
SARAL                   
1 39086U 13009A   26116.85479326  .00000123  00000+0  60930-4 0  9996
2 39086  98.5566 304.0703 0002991  82.2397 277.9127 14.32843003688258
METOP-C                 
1 43689U 18087A   26116.82578557  .00000097  00000+0  63948-4 0  9996
2 43689  98.6679 177.3592 0000811  40.0212 320.1025 14.21511826387530
OTB-3-GAZELLE           
1 54023U 22127A   26116.73601203  .00000175  00000+0  65620-4 0  9991
2 54023  98.3936 109.2283 0012885 349.6185  10.4736 14.42655288186943
EOS-6 (OCEANSAT-3)      
1 54361U 22158A   26116.85436177  .00000316  00000+0  98958-4 0  9996
2 54361  98.3498 215.7383 0002311 106.6164 253.5282 14.46979951180418
KINEIS-1B               
1 60079U 24114A   26116.82467940  .00001126  00000+0  15383-3 0  9992
2 60079  97.9861 141.2525 0000933 245.0939 115.0176 14.80533252 99801
KINEIS-1C               
1 60081U 24114C   26116.85846487  .00001009  00000+0  13866-3 0  9999
2 60081  97.9885 141.1225 0001708  59.1873 300.9507 14.80535330 99787
KINEIS-1D               
1 60082U 24114D   26116.80086590  .00000662  00000+0  10308-3 0  9998
2 60082  97.9914 137.4935 0002030  49.9846 310.1542 14.76189015 99549
KINEIS-1E               
1 60083U 24114E   26116.87445979 -.00001985  00000+0 -25293-3 0  9996
2 60083  97.9283 141.0446 0002232  57.3486 302.7942 14.80448611 99797
KINEIS-1A               
1 60084U 24114F   26116.77401406  .00001241  00000+0  16900-3 0  9991
2 60084  97.9254 141.0620 0002631 313.3206  46.7787 14.80483991 99789
KINEIS-3C               
1 61220U 24172A   26116.76186569  .00002179  00000+0  35269-3 0  9997
2 61220  98.0411 207.2082 0000753  28.5060 331.6188 14.72285758 85500
KINEIS-3D               
1 61221U 24172B   26116.82303279  .00001981  00000+0  32140-3 0  9999
2 61221  98.0409 207.2799 0000672  40.8788 319.2470 14.72286784 85794
KINEIS-3E               
1 61222U 24172C   26116.80564523  .00001951  00000+0  31677-3 0  9990
2 61222  98.0402 207.2503 0000909  91.7891 268.3421 14.72274050 85797
KINEIS-3A               
1 61223U 24172D   26116.78934235  .00002143  00000+0  34694-3 0  9995
2 61223  98.0401 207.3349 0000935 215.4265 144.6880 14.72302947 85214
KINEIS-3B               
1 61224U 24172E   26116.77233332  .00002143  00000+0  34687-3 0  9997
2 61224  98.0396 207.3444 0001428 185.9495 174.1695 14.72307313 85784
KINEIS-5C               
1 62081U 24219A   26116.06801966 -.00000110  00000+0 -98411-5 0  9998
2 62081  97.9006 276.3834 0005435  90.5104 269.6727 14.72300008 76084
KINEIS-5D               
1 62082U 24219B   26116.84964392  .00001107  00000+0  18253-3 0  9997
2 62082  97.9099 277.0856 0006386  82.5676 277.6257 14.72351119 76200
